JUPITER 3 (ECHOSTAR 24) 
1 57479U 23108A   26177.50167490  .00000000  00000+0  00000+0 0  9999
2 57479   0.0216  11.4009 0001132  81.4278 267.1843  1.00269954 10744
GALAXY 37 (G-37)        
1 57493U 23112A   26178.10947644  .00000060  00000+0  00000+0 0  9990
2 57493   0.0155  53.7139 0002254  39.5005  94.4213  1.00271964 10648
LUDI TANCE-4 01A        
1 57624U 23120A   26178.03981346 -.00000153  00000+0  00000+0 0  9998
2 57624  15.0930 193.7182 0001333  21.6649 163.6860  1.00267837 10648
TJS-10                  
1 58204U 23169A   26177.72731740 -.00000240  00000+0  00000+0 0  9999
2 58204   2.5688  80.3883 0003937 103.3566  85.3876  1.00271833  9636
ZHONGXING-6E            
1 58253U 23172A   26177.40335128 -.00000350  00000+0  00000+0 0  9994
2 58253   0.0365 262.4496 0002590 192.6137  80.1597  1.00275723  9755
YAOGAN-41               
1 58582U 23197A   26178.04640016 -.00000347  00000+0  00000+0 0  9998
2 58582   3.1105 313.2960 0014181 195.3927 266.3233  1.00276579  9422
OVZON-3                 
1 58698U 24003A   26178.17650256  .00000000  00000+0  00000+0 0  9999
2 58698   0.0149  37.4258 0000255  18.2289 342.8652  1.00270177  7544
INSAT-3DS               
1 58990U 24033A   26178.03834012 -.00000144  00000+0  00000+0 0  9996
2 58990   0.0617 100.5111 0001473 345.6436 284.8739  1.00270638 47168
MERAH PUTIH 2           
1 58995U 24035A   26178.03447608 -.00000346  00000+0  00000+0 0  9998
2 58995   0.0142  61.0433 0001433  34.7585 304.7126  1.00273140  8688
TJS-11                  
1 59020U 24037A   26177.90179284 -.00000350  00000+0  00000+0 0  9992
2 59020   4.1863 327.2062 0003535 109.8536 275.2694  1.00271807  8683
HULIANWAN GAOGUI-01 (H*)
1 59069U 24040A   26178.05947454  .00000167  00000+0  00000+0 0  9993
2 59069   0.0697 330.4009 0002768  73.4821 286.2801  1.00270089  7427
EUTELSAT 36D            
1 59346U 24059A   26178.17173587  .00000000  00000+0  00000+0 0  9998
2 59346   0.0242  19.2305 0000172  50.2040 303.5166  1.00265217  8240
PAKSAT-MM1              
1 59915U 24104A   26178.17216919  .00000165  00000+0  00000+0 0  9990
2 59915   0.0458 215.6404 0002783 216.5323 303.2497  1.00272758  7627
ASTRA 1P (SES-24)       
1 60086U 24115A   26178.09718395  .00000131  00000+0  00000+0 0  9992
2 60086   0.0551 341.5480 0000558 283.0699  64.7788  1.00264029  7295
GOES 19                 
1 60133U 24119A   26178.19003037 -.00000237  00000+0  00000+0 0  9998
2 60133   0.0076  91.7909 0000557  49.8217 126.9075  1.00271191  7066
ZHONGXING-3A            
1 60179U 24122A   26177.32930631 -.00000302  00000+0  00000+0 0  9998
2 60179   0.0422 126.7500 0001532 356.6470  11.1904  1.00272295  7401
TURKSAT 6A              
1 60233U 24127A   26178.10169064  .00000158  00000+0  00000+0 0  9993
2 60233   0.0588 212.2486 0002736 288.0405 213.5719  1.00273646  7113
HULIANWAN GAOGUI-02 (H*)
1 60327U 24135A   26177.98115155 -.00000162  00000+0  00000+0 0  9999
2 60327   0.0436 354.3395 0007488  16.2160  50.8501  1.00269273  7598
ZHONGXING-4A            
1 60606U 24151A   26178.04544682 -.00000349  00000+0  00000+0 0  9993
2 60606   1.2892 270.6980 0000559 212.2177 286.8137  1.00269223  6854
HULIANWAN GAOGUI-03 (H*)
1 61503U 24181A   26178.14934721 -.00000230  00000+0  00000+0 0  9990
2 61503   0.0468 357.7073 0001497  90.4524 163.7488  1.00274692  6927
DSN-3 (KIRAMEKI-3)      
1 61733U 24198A   26178.19315774 -.00000238  00000+0  00000+0 0  9997
2 61733   0.0187 340.4410 0000971 120.5972  27.8501  1.00273672  6026
KOREASAT 6A             
1 61910U 24206A   26178.04501347  .00000000  00000+0  00000+0 0  9997
2 61910   0.0171  27.3131 0000934  61.1334 318.9473  1.00270160  5938
OPTUS-X (ADS-01)        
1 62006U 24212A   26178.13100160 -.00000132  00000+0  00000+0 0  9996
2 62006   0.0190   8.8928 0002274 120.5766 349.3194  1.00271980  5863
GSAT-N2 (GSAT-20)       
1 62028U 24214A   26178.10680398 -.00000008  00000+0  00000+0 0  9997
2 62028   0.0598 102.0884 0002229 344.6497 294.8683  1.00272303  5998
SXM-9                   
1 62259U 24234A   26178.07645182 -.00000194  00000+0  00000+0 0  9999
2 62259   0.0142 341.9377 0004999 339.7234 255.8969  1.00276794  5677
TJS-12                  
1 62374U 24246A   26177.90855287 -.00000218  00000+0  00000+0 0  9997
2 62374   0.6491 300.1136 0002399 103.1186 345.3750  1.00275058  5663
NUVIEW ALPHA            
1 62455U 24252B   26178.19003037 -.00000204  00000+0  00000+0 0  9999
2 62455   0.0505  31.0291 0001478  27.2213 202.3807  1.00274955  3926
AGILA                   
1 62456U 24252C   26178.14766837 -.00000170  00000+0  00000+0 0  9991
2 62456   0.0646 123.8317 0001664 351.3857   5.3551  1.00271579  5269
NUVIEW BRAVO            
1 62457U 24252D   26178.19003037 -.00000203  00000+0  00000+0 0  9990
2 62457   0.0738 151.1106 0002212 332.0859 137.4218  1.00272174  3896
THURAYA-4               
1 62483U 25001A   26178.10212397  .00000151  00000+0  00000+0 0  9995
2 62483   0.0222  65.4956 0000184 195.5265  95.2638  1.00265535  4275
SHIJIAN-25 (SJ-25)      
1 62485U 25002A   26177.75060324 -.00000343  00000+0  00000+0 0  9993
2 62485   5.1354  61.1092 0051249 174.7668  76.4681  1.00279431  5457
TJS-14                  
1 62804U 25017A   26178.16826918  .00000128  00000+0  00000+0 0  9999
2 62804   0.7600 296.3207 0001125 293.1763 124.7611  1.00269411  5375
